start=new Date('2023-06-05T00:00:00.000Z').valueOf();
sats=[{"ARG_OF_PERICENTER":"93.1528","CLASSIFICATION_TYPE":"U","MEAN_ANOMALY":"266.9579","MEAN_MOTION":"15.06388386","EPOCH":"2023-06-04T17:00:58.748256","SEMIMAJOR_AXIS":"6925.384","OBJECT_ID":"2021-012C","MEAN_ELEMENT_THEORY":"SGP4","ECCENTRICITY":"0.00010370","BSTAR":"0.00016730000000","LAUNCH_DATE":"2021-02-16","MEAN_MOTION_DDOT":"0.0000000000000","RCS_SIZE":"LARGE","MEAN_MOTION_DOT":"0.00002211","EPHEMERIS_TYPE":"0","TIME_SYSTEM":"UTC","TLE_LINE1":"1 47622U 21012C   23155.70901329  .00002211  00000-0  16730-3 0  9990","APOAPSIS":"547.967","DECAY_DATE":null,"REF_FRAME":"TEME","RA_OF_ASC_NODE":"281.0976","INCLINATION":"53.0534","GP_ID":"233213763","TLE_LINE2":"2 47622  53.0534 281.0976 0001037  93.1528 266.9579 15.06388386127906","OBJECT_NAME":"STARLINK-1645","FILE":"3925173","OBJECT_TYPE":"PAYLOAD","COUNTRY_CODE":"US","PERIAPSIS":"546.531","ELEMENT_SET_NO":"999","PERIOD":"95.593","REV_AT_EPOCH":"12790","NORAD_CAT_ID":"47622","CENTER_NAME":"EARTH","SITE":"AFETR"},{"APOAPSIS":"547.991","TLE_LINE1":"1 47623U 21012D   23155.85416656  .00002374  00000-0  17820-3 0  9992","TIME_SYSTEM":"UTC","EPHEMERIS_TYPE":"0","RCS_SIZE":"LARGE","MEAN_MOTION_DOT":"0.00002374","LAUNCH_DATE":"2021-02-16","MEAN_MOTION_DDOT":"0.0000000000000","BSTAR":"0.00017820000000","ECCENTRICITY":"0.00010990","MEAN_ELEMENT_THEORY":"SGP4","OBJECT_ID":"2021-012D","MEAN_MOTION":"15.06394807","SEMIMAJOR_AXIS":"6925.364","EPOCH":"2023-06-04T20:29:59.990784","ARG_OF_PERICENTER":"78.2896","CLASSIFICATION_TYPE":"U","MEAN_ANOMALY":"281.8216","SITE":"AFETR","CENTER_NAME":"EARTH","NORAD_CAT_ID":"47623","REV_AT_EPOCH":"12884","PERIOD":"95.592","PERIAPSIS":"546.468","ELEMENT_SET_NO":"999","COUNTRY_CODE":"US","OBJECT_TYPE":"PAYLOAD","FILE":"3925173","OBJECT_NAME":"STARLINK-1655","TLE_LINE2":"2 47623  53.0527 215.4561 0001099  78.2896 281.8216 15.06394807128843","GP_ID":"233214013","INCLINATION":"53.0527","DECAY_DATE":null,"REF_FRAME":"TEME","RA_OF_ASC_NODE":"215.4561"},{"PERIOD":"95.592","REV_AT_EPOCH":"12817","NORAD_CAT_ID":"47624","CENTER_NAME":"EARTH","SITE":"AFETR","DECAY_DATE":null,"RA_OF_ASC_NODE":"261.9721","REF_FRAME":"TEME","INCLINATION":"53.0548","GP_ID":"233179923","TLE_LINE2":"2 47624  53.0548 261.9721 0000522 130.4817 229.6217 15.06396131128174","OBJECT_NAME":"STARLINK-1669","FILE":"3924842","OBJECT_TYPE":"PAYLOAD","COUNTRY_CODE":"US","PERIAPSIS":"546.864","ELEMENT_SET_NO":"999","RCS_SIZE":"LARGE","MEAN_MOTION_DOT":"0.00007506","EPHEMERIS_TYPE":"0","TLE_LINE1":"1 47624U 21012E   23155.51644103  .00007506  00000-0  52229-3 0  9990","TIME_SYSTEM":"UTC","APOAPSIS":"547.587","ARG_OF_PERICENTER":"130.4817","MEAN_ANOMALY":"229.6217","CLASSIFICATION_TYPE":"U","MEAN_MOTION":"15.06396131","EPOCH":"2023-06-04T12:23:40.504992","SEMIMAJOR_AXIS":"6925.360","OBJECT_ID":"2021-012E","MEAN_ELEMENT_THEORY":"SGP4","BSTAR":"0.00052229000000","ECCENTRICITY":"0.00005220","LAUNCH_DATE":"2021-02-16","MEAN_MOTION_DDOT":"0.0000000000000"},{"EPHEMERIS_TYPE":"0","MEAN_MOTION_DOT":"0.00008466","RCS_SIZE":"LARGE","APOAPSIS":"547.764","TLE_LINE1":"1 47625U 21012F   23155.65003401  .00008466  00000-0  58658-3 0  9994","TIME_SYSTEM":"UTC","MEAN_ELEMENT_THEORY":"SGP4","OBJECT_ID":"2021-012F","SEMIMAJOR_AXIS":"6925.354","EPOCH":"2023-06-04T15:36:02.938464","MEAN_MOTION":"15.06398157","CLASSIFICATION_TYPE":"U","MEAN_ANOMALY":"246.6255","ARG_OF_PERICENTER":"113.4817","MEAN_MOTION_DDOT":"0.0000000000000","LAUNCH_DATE":"2021-02-16","ECCENTRICITY":"0.00007860","BSTAR":"0.00058658000000","NORAD_CAT_ID":"47625","REV_AT_EPOCH":"12789","PERIOD":"95.592","SITE":"AFETR","CENTER_NAME":"EARTH","TLE_LINE2":"2 47625  53.0535 281.3667 0000786 113.4817 246.6255 15.06398157127898","GP_ID":"233215516","INCLINATION":"53.0535","RA_OF_ASC_NODE":"281.3667","REF_FRAME":"TEME","DECAY_DATE":null,"ELEMENT_SET_NO":"999","PERIAPSIS":"546.675","COUNTRY_CODE":"US","OBJECT_TYPE":"PAYLOAD","FILE":"3925173","OBJECT_NAME":"STARLINK-1704"},{"EPHEMERIS_TYPE":"0","RCS_SIZE":"LARGE","MEAN_MOTION_DOT":"0.00009927","APOAPSIS":"547.869","TIME_SYSTEM":"UTC","TLE_LINE1":"1 47626U 21012G   23155.76893752  .00009927  00000-0  68443-3 0  9999","MEAN_ELEMENT_THEORY":"SGP4","OBJECT_ID":"2021-012G","MEAN_MOTION":"15.06395512","EPOCH":"2023-06-04T18:27:16.201728","SEMIMAJOR_AXIS":"6925.362","ARG_OF_PERICENTER":"85.5405","CLASSIFICATION_TYPE":"U","MEAN_ANOMALY":"274.5690","LAUNCH_DATE":"2021-02-16","MEAN_MOTION_DDOT":"0.0000000000000","BSTAR":"0.00068443000000","ECCENTRICITY":"0.00009270","NORAD_CAT_ID":"47626","REV_AT_EPOCH":"12791","PERIOD":"95.592","SITE":"AFETR","CENTER_NAME":"EARTH","TLE_LINE2":"2 47626  53.0540 280.8376 0000927  85.5405 274.5690 15.06395512127913","GP_ID":"233215517","INCLINATION":"53.0540","DECAY_DATE":null,"RA_OF_ASC_NODE":"280.8376","REF_FRAME":"TEME","PERIAPSIS":"546.585","ELEMENT_SET_NO":"999","OBJECT_TYPE":"PAYLOAD","COUNTRY_CODE":"US","FILE":"3925173","OBJECT_NAME":"STARLINK-1761"},{"TIME_SYSTEM":"UTC","TLE_LINE1":"1 47627U 21012H   23155.77951763  .00000429  00000-0  47715-4 0  9996","APOAPSIS":"547.880","EPHEMERIS_TYPE":"0","RCS_SIZE":"LARGE","MEAN_MOTION_DOT":"0.00000429","ECCENTRICITY":"0.00009530","BSTAR":"0.00004771500000","LAUNCH_DATE":"2021-02-16","MEAN_MOTION_DDOT":"0.0000000000000","MEAN_MOTION":"15.06397864","SEMIMAJOR_AXIS":"6925.355","EPOCH":"2023-06-04T18:42:30.323232","ARG_OF_PERICENTER":"74.5363","CLASSIFICATION_TYPE":"U","MEAN_ANOMALY":"285.5731","MEAN_ELEMENT_THEORY":"SGP4","OBJECT_ID":"2021-012H","SITE":"AFETR","CENTER_NAME":"EARTH","PERIOD":"95.592","NORAD_CAT_ID":"47627","REV_AT_EPOCH":"12922","FILE":"3925173","OBJECT_NAME":"STARLINK-1972","PERIAPSIS":"546.560","ELEMENT_SET_NO":"999","COUNTRY_CODE":"US","OBJECT_TYPE":"PAYLOAD","INCLINATION":"53.0540","DECAY_DATE":null,"RA_OF_ASC_NODE":"185.7899","REF_FRAME":"TEME","TLE_LINE2":"2 47627  53.0540 185.7899 0000953  74.5363 285.5731 15.06397864129223","GP_ID":"233214514"},{"SITE":"AFETR","CENTER_NAME":"EARTH","PERIOD":"95.592","NORAD_CAT_ID":"47628","REV_AT_EPOCH":"12791","FILE":"3925173","OBJECT_NAME":"STARLINK-1973","PERIAPSIS":"546.677","ELEMENT_SET_NO":"999","OBJECT_TYPE":"PAYLOAD","COUNTRY_CODE":"US","INCLINATION":"53.0544","DECAY_DATE":null,"REF_FRAME":"TEME","RA_OF_ASC_NODE":"280.9663","TLE_LINE2":"2 47628  53.0544 280.9663 0000788  72.0546 288.0529 15.06396850127918","GP_ID":"233216519","TIME_SYSTEM":"UTC","TLE_LINE1":"1 47628U 21012J   23155.73849764  .00010584  00000-0  72844-3 0  9993","APOAPSIS":"547.769","EPHEMERIS_TYPE":"0","RCS_SIZE":"LARGE","MEAN_MOTION_DOT":"0.00010584","BSTAR":"0.00072844000000","ECCENTRICITY":"0.00007880","LAUNCH_DATE":"2021-02-16","MEAN_MOTION_DDOT":"0.0000000000000","MEAN_MOTION":"15.06396850","EPOCH":"2023-06-04T17:43:26.196096","SEMIMAJOR_AXIS":"6925.358","ARG_OF_PERICENTER":"72.0546","CLASSIFICATION_TYPE":"U","MEAN_ANOMALY":"288.0529","MEAN_ELEMENT_THEORY":"SGP4","OBJECT_ID":"2021-012J"},{"MEAN_ELEMENT_THEORY":"SGP4","OBJECT_ID":"2021-012K","MEAN_MOTION":"15.06399802","EPOCH":"2023-06-04T10:56:04.923456","SEMIMAJOR_AXIS":"6925.349","ARG_OF_PERICENTER":"83.9926","CLASSIFICATION_TYPE":"U","MEAN_ANOMALY":"276.1187","LAUNCH_DATE":"2021-02-16","MEAN_MOTION_DDOT":"0.0000000000000","ECCENTRICITY":"0.00010820","BSTAR":"0.00001110200000","EPHEMERIS_TYPE":"0","RCS_SIZE":"LARGE","MEAN_MOTION_DOT":"-0.00000116","APOAPSIS":"547.963","TIME_SYSTEM":"UTC","TLE_LINE1":"1 47629U 21012K   23155.45561254 -.00000116  00000-0  11102-4 0  9990","TLE_LINE2":"2 47629  53.0533 162.2417 0001082  83.9926 276.1187 15.06399802129535","GP_ID":"233181926","INCLINATION":"53.0533","DECAY_DATE":null,"REF_FRAME":"TEME","RA_OF_ASC_NODE":"162.2417","PERIAPSIS":"546.465","ELEMENT_SET_NO":"999","COUNTRY_CODE":"US","OBJECT_TYPE":"PAYLOAD","FILE":"3924842","OBJECT_NAME":"STARLINK-1974","NORAD_CAT_ID":"47629","REV_AT_EPOCH":"12953","PERIOD":"95.592","SITE":"AFETR","CENTER_NAME":"EARTH"},{"INCLINATION":"53.0539","DECAY_DATE":null,"REF_FRAME":"TEME","RA_OF_ASC_NODE":"261.6283","TLE_LINE2":"2 47630  53.0539 261.6283 0000793  86.5732 273.5347 15.06399102128159","GP_ID":"233216018","FILE":"3925173","OBJECT_NAME":"STARLINK-1983","PERIAPSIS":"546.667","ELEMENT_SET_NO":"999","OBJECT_TYPE":"PAYLOAD","COUNTRY_CODE":"US","PERIOD":"95.592","NORAD_CAT_ID":"47630","REV_AT_EPOCH":"12815","SITE":"AFETR","CENTER_NAME":"EARTH","MEAN_MOTION":"15.06399102","EPOCH":"2023-06-04T14:41:41.712576","SEMIMAJOR_AXIS":"6925.351","ARG_OF_PERICENTER":"86.5732","CLASSIFICATION_TYPE":"U","MEAN_ANOMALY":"273.5347","MEAN_ELEMENT_THEORY":"SGP4","OBJECT_ID":"2021-012L","ECCENTRICITY":"0.00007930","BSTAR":"0.00064285000000","LAUNCH_DATE":"2021-02-16","MEAN_MOTION_DDOT":"0.0000000000000","EPHEMERIS_TYPE":"0","RCS_SIZE":"LARGE","MEAN_MOTION_DOT":"0.00009307","TLE_LINE1":"1 47630U 21012L   23155.61228834  .00009307  00000-0  64285-3 0  9993","TIME_SYSTEM":"UTC","APOAPSIS":"547.765"},{"BSTAR":"0.00001862500000","ECCENTRICITY":"0.00010930","LAUNCH_DATE":"2021-02-16","MEAN_MOTION_DDOT":"0.0000000000000","MEAN_MOTION":"15.06393066","EPOCH":"2023-06-04T19:18:18.197856","SEMIMAJOR_AXIS":"6925.370","ARG_OF_PERICENTER":"90.9963","MEAN_ANOMALY":"269.1151","CLASSIFICATION_TYPE":"U","MEAN_ELEMENT_THEORY":"SGP4","OBJECT_ID":"2021-012N","TLE_LINE1":"1 47632U 21012N   23155.80437729 -.00000004  00000-0  18625-4 0  9995","TIME_SYSTEM":"UTC","APOAPSIS":"547.992","EPHEMERIS_TYPE":"0","RCS_SIZE":"LARGE","MEAN_MOTION_DOT":"-0.00000004","FILE":"3925173","OBJECT_NAME":"STARLINK-1992","PERIAPSIS":"546.478","ELEMENT_SET_NO":"999","COUNTRY_CODE":"US","OBJECT_TYPE":"PAYLOAD","INCLINATION":"53.0550","DECAY_DATE":null,"REF_FRAME":"TEME","RA_OF_ASC_NODE":"185.6822","TLE_LINE2":"2 47632  53.0550 185.6822 0001093  90.9963 269.1151 15.06393066129234","GP_ID":"233216268","SITE":"AFETR","CENTER_NAME":"EARTH","PERIOD":"95.593","NORAD_CAT_ID":"47632","REV_AT_EPOCH":"12923"}];
